{"type":"FeatureCollection","features":[{"type":"Feature","id":1,"geometry":{"type":"Polygon","coordinates":[[[-61.390914161574138,12.593768498196987],[-61.439681716665476,12.596931976856611],[-61.441032703801042,12.574927967393286],[-61.392270034646536,12.571765289169763],[-61.390914161574138,12.593768498196987]]]},"properties":{"OBJECTID":1,"WDPAID":26480,"WDPA_PID":"26480","PA_DEF":"1","NAME":"Union-Palm Island","ORIG_NAME":"Union-Palm Island Marine Conservation Area","DESIG":"Marine Conservation Area","DESIG_ENG":"Marine Conservation Area","DESIG_TYPE":"National","IUCN_CAT":"VI","INT_CRIT":"Not Applicable","MARINE":"1","REP_M_AREA":0,"GIS_M_AREA":11.1573078923771,"REP_AREA":1359.59997559,"GIS_AREA":12.9500987368364,"NO_TAKE":"Not Reported","NO_TK_AREA":0,"STATUS":"Designated","STATUS_YR":1987,"GOV_TYPE":"Federal or national ministry or agency","OWN_TYPE":"Not Reported","MANG_AUTH":"Fisheries Division","MANG_PLAN":"Not Reported","VERIF":"State Verified","METADATAID":1809,"SUB_LOC":"VC-06","PARENT_ISO3":"VCT","ISO3":"VCT","SUPP_INFO":"Not Applicable","CONS_OBJ":"Not Applicable","Shape_Length":15640.214734385927,"Shape_Area":12950098.626895998}},{"type":"Feature","id":2,"geometry":{"type":"Polygon","coordinates":[[[-61.306402420342131,12.650639613392981],[-61.398860885851214,12.656668523548367],[-61.401725851345823,12.610275239915447],[-61.309284399029906,12.604252440198417],[-61.306402420342131,12.650639613392981]]]},"properties":{"OBJECTID":2,"WDPAID":31478,"WDPA_PID":"31478","PA_DEF":"1","NAME":"Tobago Cays-Mayreau","ORIG_NAME":"Tobago Cays-Mayreau MP/MR/Wildlife Reserve","DESIG":"Marine Park / Marine Reserve / Wildlife Reserve","DESIG_ENG":"Marine Park / Marine Reserve / Wildlife Reserve","DESIG_TYPE":"National","IUCN_CAT":"II","INT_CRIT":"Not Applicable","MARINE":"2","REP_M_AREA":0,"GIS_M_AREA":49.742307999114999,"REP_AREA":5468.5,"GIS_AREA":51.754433234093398,"NO_TAKE":"Not Reported","NO_TK_AREA":0,"STATUS":"Designated","STATUS_YR":1987,"GOV_TYPE":"Joint governance","OWN_TYPE":"Not Reported","MANG_AUTH":"TCMP Board / Fisheries Department","MANG_PLAN":"Not Reported","VERIF":"State Verified","METADATAID":1809,"SUB_LOC":"VC-06","PARENT_ISO3":"VCT","ISO3":"VCT","SUPP_INFO":"Not Applicable","CONS_OBJ":"Not Applicable","Shape_Length":30661.73927961442,"Shape_Area":51754433.124167509}},{"type":"Feature","id":3,"geometry":{"type":"Polygon","coordinates":[[[-61.203172017309285,13.027220402539241],[-61.223912072654016,13.028591620397922],[-61.224799129352675,13.014718034766153],[-61.204060294818433,13.013347218242689],[-61.203172017309285,13.027220402539241]]]},"properties":{"OBJECTID":3,"WDPAID":31466,"WDPA_PID":"31466","PA_DEF":"1","NAME":"Bequia Marine","ORIG_NAME":"Bequia Marine Conservation Area","DESIG":"Marine Conservation Area / Wildlife Reserve","DESIG_ENG":"Marine Conservation Area / Wildlife Reserve","DESIG_TYPE":"National","IUCN_CAT":"VI","INT_CRIT":"Not Applicable","MARINE":"1","REP_M_AREA":0,"GIS_M_AREA":2.4016066404491099,"REP_AREA":367.5,"GIS_AREA":3.4675312986890399,"NO_TAKE":"Not Reported","NO_TK_AREA":0,"STATUS":"Designated","STATUS_YR":1987,"GOV_TYPE":"Joint governance","OWN_TYPE":"Not Reported","MANG_AUTH":"Fisheries Division / Forestry Department","MANG_PLAN":"Not Reported","VERIF":"State Verified","METADATAID":1809,"SUB_LOC":"VC-06","PARENT_ISO3":"VCT","ISO3":"VCT","SUPP_INFO":"Not Applicable","CONS_OBJ":"Not Applicable","Shape_Length":7624.6071385263131,"Shape_Area":3467531.2839975655}},{"type":"Feature","id":4,"geometry":{"type":"Polygon","coordinates":[[[-61.304476188031217,12.717669710422042],[-61.334776419158437,12.719651320237519],[-61.336792438081993,12.687287396660091],[-61.306496194576326,12.685307418590687],[-61.304476188031217,12.717669710422042]]]},"properties":{"OBJECTID":4,"WDPAID":555576492,"WDPA_PID":"555576492","PA_DEF":"1","NAME":"Canouan","ORIG_NAME":"Canouan Marine Reserve / Marine Conservation Area","DESIG":"Marine Reserve / Marine Conservation Area","DESIG_ENG":"Marine Reserve","DESIG_TYPE":"National","IUCN_CAT":"IV","INT_CRIT":"Not Applicable","MARINE":"1","REP_M_AREA":0,"GIS_M_AREA":9.7281647569415899,"REP_AREA":1250.6999510000001,"GIS_AREA":11.829852227576,"NO_TAKE":"Not Reported","NO_TK_AREA":0,"STATUS":"Designated","STATUS_YR":0,"GOV_TYPE":"Federal or national ministry or agency","OWN_TYPE":"Not Reported","MANG_AUTH":"Fisheries Divison","MANG_PLAN":"Not Reported","VERIF":"State Verified","METADATAID":1809,"SUB_LOC":"VC-06","PARENT_ISO3":"VCT","ISO3":"VCT","SUPP_INFO":"Not Applicable","CONS_OBJ":"Not Applicable","Shape_Length":13759.947504755399,"Shape_Area":11829852.611345848}},{"type":"Feature","id":5,"geometry":{"type":"MultiPolygon","coordinates":[[[[-61.188945532003672,12.886476511731535],[-61.203298052740273,12.88742501623295],[-61.205160318714753,12.858091467086419],[-61.190809423928805,12.857143727976018],[-61.188945532003672,12.886476511731535]]],[[[-61.174518614591854,12.898298561731007],[-61.189608063780206,12.899296854095821],[-61.190260510171065,12.889048148332712],[-61.175171458936383,12.88804992269001],[-61.174518614591854,12.898298561731007]]]]},"properties":{"OBJECTID":5,"WDPAID":555576498,"WDPA_PID":"555576498","PA_DEF":"1","NAME":"Mustique","ORIG_NAME":"Mustique Marine Reserve","DESIG":"Marine Reserve","DESIG_ENG":"Marine Reserve","DESIG_TYPE":"National","IUCN_CAT":"IV","INT_CRIT":"Not Applicable","MARINE":"1","REP_M_AREA":0,"GIS_M_AREA":6.1686868978335498,"REP_AREA":652.84600830099998,"GIS_AREA":6.9408273410576804,"NO_TAKE":"Not Reported","NO_TK_AREA":0,"STATUS":"Designated","STATUS_YR":0,"GOV_TYPE":"Federal or national ministry or agency","OWN_TYPE":"Not Reported","MANG_AUTH":"Fisheries Division","MANG_PLAN":"Not Reported","VERIF":"State Verified","METADATAID":1809,"SUB_LOC":"VC-06","PARENT_ISO3":"VCT","ISO3":"VCT","SUPP_INFO":"Not Applicable","CONS_OBJ":"Not Applicable","Shape_Length":15125.462050365855,"Shape_Area":6940827.2759772511}},{"type":"Feature","id":6,"geometry":{"type":"Polygon","coordinates":[[[-61.203226783998893,13.135119986296184],[-61.203345112783069,13.135485009150582],[-61.203419264218198,13.135589911337526],[-61.20404977195318,13.135828521796737],[-61.204849191707673,13.135896555460187],[-61.204988330863713,13.135946242968371],[-61.205107647794705,13.136651552176591],[-61.20544751100941,13.137016010223109],[-61.205934786863921,13.13729000604676],[-61.20641311819314,13.137473951398979],[-61.207090913244677,13.137537284090465],[-61.208293833766916,13.13743914738008],[-61.208510784094543,13.137358524537925],[-61.208601646888908,13.137233179850453],[-61.208683153729581,13.136877659354148],[-61.208730431164682,13.136702392447145],[-61.20889537442725,13.136661927551781],[-61.209034156053818,13.13658651306114],[-61.20917979002936,13.136484479925912],[-61.209232787037877,13.13638307510762],[-61.209351031380393,13.120063037311418],[-61.193572666895577,13.122766730924559],[-61.191974143593583,13.122974872024102],[-61.192164852335139,13.122964359871355],[-61.192419136645988,13.122950346452321],[-61.192609846285862,13.1229398389405],[-61.192825268579199,13.123150798458926],[-61.192793700881801,13.123195224589427],[-61.192898339341028,13.123330100083043],[-61.193350647374793,13.123534152032361],[-61.193516122440023,13.123678875454127],[-61.193516621903328,13.123849041462689],[-61.193456016164369,13.123919268428461],[-61.19325210578139,13.12399486472545],[-61.192887757186995,13.124160965449452],[-61.192636563979036,13.1244068460579],[-61.192433018312066,13.124607565554214],[-61.19209420343131,13.12459341284603],[-61.19193388200086,13.124723946112814],[-61.191527503929279,13.125365605661726],[-61.191293899734568,13.125681510743883],[-61.191163750917895,13.125731890374466],[-61.19085486341082,13.1255575016727],[-61.190472667088351,13.125558471421316],[-61.189917210900404,13.125720034377682],[-61.189418547103038,13.125991547608576],[-61.189284431326065,13.126167060408106],[-61.189203326930638,13.126647717699678],[-61.189203403287436,13.126672741035474],[-61.189152366402894,13.127038213796105],[-61.189131758151944,13.127413619426951],[-61.189180274363821,13.127663729305306],[-61.189559481991331,13.128123201386694],[-61.189894729662115,13.12840260891423],[-61.19016004618296,13.128532066745274],[-61.190481557714733,13.128571294238837],[-61.190980682347821,13.128454923040136],[-61.191432368747414,13.128453785312418],[-61.191845491370167,13.128627905969626],[-61.19237600493593,13.128846773105886],[-61.19263301563366,13.129106358380284],[-61.192851328705594,13.129496167850819],[-61.193164820078479,13.129760620250019],[-61.193460985644506,13.130040132601309],[-61.194005071855912,13.13043912614595],[-61.194174908241841,13.130593834253915],[-61.19481504322173,13.131162732354143],[-61.195296296770572,13.131407598980593],[-61.195519680832284,13.131511277279447],[-61.196250159380284,13.131784675973007],[-61.196571813744178,13.131868934839892],[-61.197584107271545,13.131966469884361],[-61.197874866776189,13.131880650068016],[-61.198646497147372,13.131368230915994],[-61.198867923780064,13.131337641835668],[-61.198968256614151,13.131487520198226],[-61.199064783286381,13.13181758606598],[-61.199165877891822,13.132227698172223],[-61.199175063165605,13.132397831903321],[-61.199240724622982,13.132572819267361],[-61.199389022103325,13.132787636256872],[-61.199780747754339,13.133066895832975],[-61.200424864067571,13.133505658826138],[-61.200812477231189,13.133864990580857],[-61.201563066363477,13.135069154697192],[-61.201694285073643,13.135384099372091],[-61.201859360388568,13.135393689585653],[-61.202385346445304,13.135537481583187],[-61.202498043690966,13.135457125692991],[-61.203148007138374,13.134915004367715],[-61.203217506198641,13.134914828043243],[-61.203226783998893,13.135119986296184]]]},"properties":{"OBJECTID":6,"WDPAID":555576505,"WDPA_PID":"555576505","PA_DEF":"1","NAME":"South Coast","ORIG_NAME":"South Coast Marine Park","DESIG":"Marine Park","DESIG_ENG":"Marine Park","DESIG_TYPE":"National","IUCN_CAT":"II","INT_CRIT":"Not Applicable","MARINE":"1","REP_M_AREA":0,"GIS_M_AREA":2.3435576216575198,"REP_AREA":272.04800415,"GIS_AREA":2.61540694154592,"NO_TAKE":"Not Reported","NO_TK_AREA":0,"STATUS":"Proposed","STATUS_YR":0,"GOV_TYPE":"Federal or national ministry or agency","OWN_TYPE":"Not Reported","MANG_AUTH":"Fisheries Divison","MANG_PLAN":"Not Reported","VERIF":"State Verified","METADATAID":1809,"SUB_LOC":"VC-04","PARENT_ISO3":"VCT","ISO3":"VCT","SUPP_INFO":"Not Applicable","CONS_OBJ":"Not Applicable","Shape_Length":7588.9849609807097,"Shape_Area":2615407.2824197016}},{"type":"Feature","id":7,"geometry":{"type":"Polygon","coordinates":[[[-61.242593794832054,12.966780099278324],[-61.254396503330256,12.967557533136707],[-61.255798052141586,12.94550738007967],[-61.2439961673985,12.944729546854054],[-61.242593794832054,12.966780099278324]]]},"properties":{"OBJECTID":7,"WDPAID":26475,"WDPA_PID":"26475","PA_DEF":"1","NAME":"Isle Quatre","ORIG_NAME":"Isle Quatre Marine Reserve / Marine Conservation Area","DESIG":"Marine Reserve / Marine Conservation Area / Wildlife Reserve","DESIG_ENG":"Marine Reserve / Marine Conservation Area / Wildlife Reserve","DESIG_TYPE":"National","IUCN_CAT":"IV","INT_CRIT":"Not Applicable","MARINE":"1","REP_M_AREA":0,"GIS_M_AREA":2.28749123956247,"REP_AREA":332.29998779300001,"GIS_AREA":3.13700919310687,"NO_TAKE":"Not Reported","NO_TK_AREA":0,"STATUS":"Designated","STATUS_YR":1987,"GOV_TYPE":"Federal or national ministry or agency","OWN_TYPE":"Not Reported","MANG_AUTH":"Fisheries Division","MANG_PLAN":"Not Reported","VERIF":"State Verified","METADATAID":1809,"SUB_LOC":"VC-06","PARENT_ISO3":"VCT","ISO3":"VCT","SUPP_INFO":"Not Applicable","CONS_OBJ":"Not Applicable","Shape_Length":7398.6902066564098,"Shape_Area":3137009.2630916443}}]}